[{"OBJECT_NAME":"STARLINK-36810","OBJECT_ID":"2026-035V","EPOCH":"2026-03-05T14:00:01.999872","MEAN_MOTION":15.97899534,"ECCENTRICITY":0.00012267,"INCLINATION":97.2729,"RA_OF_ASC_NODE":356.6316,"ARG_OF_PERICENTER":84.5353,"MEAN_ANOMALY":48.6003,"EPHEMERIS_TYPE":0,"CLASSIFICATION_TYPE":"U","NORAD_CAT_ID":67898,"ELEMENT_SET_NO":999,"REV_AT_EPOCH":309,"BSTAR":-0.0027373904,"MEAN_MOTION_DOT":-0.01227617,"MEAN_MOTION_DDOT":0.00046813595},{"OBJECT_NAME":"STARLINK-36878","OBJECT_ID":"2026-035W","EPOCH":"2026-03-05T14:00:01.999872","MEAN_MOTION":15.98028452,"ECCENTRICITY":0.00012811,"INCLINATION":97.2726,"RA_OF_ASC_NODE":356.6351,"ARG_OF_PERICENTER":98.819,"MEAN_ANOMALY":42.3165,"EPHEMERIS_TYPE":0,"CLASSIFICATION_TYPE":"U","NORAD_CAT_ID":67899,"ELEMENT_SET_NO":999,"REV_AT_EPOCH":309,"BSTAR":-0.0026902483,"MEAN_MOTION_DOT":-0.01215203,"MEAN_MOTION_DDOT":0.00046005654},{"OBJECT_NAME":"STARLINK-36361","OBJECT_ID":"2026-035X","EPOCH":"2026-03-05T14:00:01.999872","MEAN_MOTION":15.98127773,"ECCENTRICITY":0.00013338,"INCLINATION":97.2726,"RA_OF_ASC_NODE":356.6369,"ARG_OF_PERICENTER":104.0117,"MEAN_ANOMALY":41.4504,"EPHEMERIS_TYPE":0,"CLASSIFICATION_TYPE":"U","NORAD_CAT_ID":67900,"ELEMENT_SET_NO":999,"REV_AT_EPOCH":309,"BSTAR":-0.0027318909,"MEAN_MOTION_DOT":-0.01240551,"MEAN_MOTION_DDOT":0.00047847964},{"OBJECT_NAME":"STARLINK-36336","OBJECT_ID":"2026-035Y","EPOCH":"2026-03-05T14:00:01.999872","MEAN_MOTION":15.98343246,"ECCENTRICITY":0.00012854,"INCLINATION":97.2735,"RA_OF_ASC_NODE":356.6427,"ARG_OF_PERICENTER":90.8671,"MEAN_ANOMALY":67.7691,"EPHEMERIS_TYPE":0,"CLASSIFICATION_TYPE":"U","NORAD_CAT_ID":67901,"ELEMENT_SET_NO":999,"REV_AT_EPOCH":314,"BSTAR":-0.0027076331,"MEAN_MOTION_DOT":-0.01244224,"MEAN_MOTION_DDOT":0.00048223692},{"OBJECT_NAME":"STARLINK-36876","OBJECT_ID":"2026-035Z","EPOCH":"2026-03-05T14:00:01.999872","MEAN_MOTION":15.98191891,"ECCENTRICITY":0.00013021,"INCLINATION":97.2734,"RA_OF_ASC_NODE":356.6394,"ARG_OF_PERICENTER":96.3684,"MEAN_ANOMALY":52.9318,"EPHEMERIS_TYPE":0,"CLASSIFICATION_TYPE":"U","NORAD_CAT_ID":67902,"ELEMENT_SET_NO":999,"REV_AT_EPOCH":309,"BSTAR":-0.0027253806,"MEAN_MOTION_DOT":-0.01241967,"MEAN_MOTION_DDOT":0.00047982641},{"OBJECT_NAME":"STARLINK-36257","OBJECT_ID":"2026-035AA","EPOCH":"2026-03-05T14:00:01.999872","MEAN_MOTION":15.98263356,"ECCENTRICITY":0.0001272,"INCLINATION":97.2731,"RA_OF_ASC_NODE":356.6401,"ARG_OF_PERICENTER":83.0835,"MEAN_ANOMALY":70.2388,"EPHEMERIS_TYPE":0,"CLASSIFICATION_TYPE":"U","NORAD_CAT_ID":67903,"ELEMENT_SET_NO":999,"REV_AT_EPOCH":314,"BSTAR":-0.0027098623,"MEAN_MOTION_DOT":-0.01239799,"MEAN_MOTION_DDOT":0.00047865406},{"OBJECT_NAME":"STARLINK-36301","OBJECT_ID":"2026-037A","EPOCH":"2026-03-05T14:00:01.999872","MEAN_MOTION":15.91933253,"ECCENTRICITY":0.00012321,"INCLINATION":42.9995,"RA_OF_ASC_NODE":223.8906,"ARG_OF_PERICENTER":269.4946,"MEAN_ANOMALY":288.6695,"EPHEMERIS_TYPE":0,"CLASSIFICATION_TYPE":"U","NORAD_CAT_ID":67932,"ELEMENT_SET_NO":999,"REV_AT_EPOCH":244,"BSTAR":-0.004543934,"MEAN_MOTION_DOT":-0.01551934,"MEAN_MOTION_DDOT":0.00067505996},{"OBJECT_NAME":"STARLINK-36852","OBJECT_ID":"2026-037B","EPOCH":"2026-03-05T14:00:01.999872","MEAN_MOTION":15.92072638,"ECCENTRICITY":0.00010696,"INCLINATION":42.9998,"RA_OF_ASC_NODE":223.8847,"ARG_OF_PERICENTER":274.3388,"MEAN_ANOMALY":286.0919,"EPHEMERIS_TYPE":0,"CLASSIFICATION_TYPE":"U","NORAD_CAT_ID":67933,"ELEMENT_SET_NO":999,"REV_AT_EPOCH":253,"BSTAR":-0.0044758931,"MEAN_MOTION_DOT":-0.01539943,"MEAN_MOTION_DDOT":0.00066640385},{"OBJECT_NAME":"STARLINK-36861","OBJECT_ID":"2026-037C","EPOCH":"2026-03-05T14:00:01.999872","MEAN_MOTION":15.92207281,"ECCENTRICITY":0.00012082,"INCLINATION":42.9997,"RA_OF_ASC_NODE":223.8777,"ARG_OF_PERICENTER":272.1757,"MEAN_ANOMALY":291.1611,"EPHEMERIS_TYPE":0,"CLASSIFICATION_TYPE":"U","NORAD_CAT_ID":67934,"ELEMENT_SET_NO":999,"REV_AT_EPOCH":253,"BSTAR":-0.0044784746,"MEAN_MOTION_DOT":-0.01551563,"MEAN_MOTION_DDOT":0.00067655654},{"OBJECT_NAME":"STARLINK-36860","OBJECT_ID":"2026-037D","EPOCH":"2026-03-05T14:00:01.999872","MEAN_MOTION":15.92338167,"ECCENTRICITY":0.00015301,"INCLINATION":42.9995,"RA_OF_ASC_NODE":223.8704,"ARG_OF_PERICENTER":275.1447,"MEAN_ANOMALY":291.19,"EPHEMERIS_TYPE":0,"CLASSIFICATION_TYPE":"U","NORAD_CAT_ID":67935,"ELEMENT_SET_NO":999,"REV_AT_EPOCH":253,"BSTAR":-0.004482094,"MEAN_MOTION_DOT":-0.01563383,"MEAN_MOTION_DDOT":0.00068693299},{"OBJECT_NAME":"STARLINK-36848","OBJECT_ID":"2026-037E","EPOCH":"2026-03-05T14:00:01.999872","MEAN_MOTION":15.9258549,"ECCENTRICITY":0.00010786,"INCLINATION":42.9996,"RA_OF_ASC_NODE":223.8554,"ARG_OF_PERICENTER":265.6869,"MEAN_ANOMALY":306.3714,"EPHEMERIS_TYPE":0,"CLASSIFICATION_TYPE":"U","NORAD_CAT_ID":67936,"ELEMENT_SET_NO":999,"REV_AT_EPOCH":253,"BSTAR":-0.004395388,"MEAN_MOTION_DOT":-0.01553145,"MEAN_MOTION_DDOT":0.00068032471},{"OBJECT_NAME":"STARLINK-36370","OBJECT_ID":"2026-037F","EPOCH":"2026-03-05T14:00:01.999872","MEAN_MOTION":15.92452237,"ECCENTRICITY":0.00014695,"INCLINATION":42.9998,"RA_OF_ASC_NODE":223.8628,"ARG_OF_PERICENTER":272.2116,"MEAN_ANOMALY":297.1832,"EPHEMERIS_TYPE":0,"CLASSIFICATION_TYPE":"U","NORAD_CAT_ID":67937,"ELEMENT_SET_NO":999,"REV_AT_EPOCH":253,"BSTAR":-0.0044358117,"MEAN_MOTION_DOT":-0.01556564,"MEAN_MOTION_DDOT":0.00068219268},{"OBJECT_NAME":"STARLINK-36371","OBJECT_ID":"2026-037G","EPOCH":"2026-03-05T14:00:01.999872","MEAN_MOTION":15.9272645,"ECCENTRICITY":0.00011645,"INCLINATION":42.9996,"RA_OF_ASC_NODE":223.8489,"ARG_OF_PERICENTER":269.5079,"MEAN_ANOMALY":305.0057,"EPHEMERIS_TYPE":0,"CLASSIFICATION_TYPE":"U","NORAD_CAT_ID":67938,"ELEMENT_SET_NO":999,"REV_AT_EPOCH":253,"BSTAR":-0.0043726519,"MEAN_MOTION_DOT":-0.01556546,"MEAN_MOTION_DDOT":0.00068400578},{"OBJECT_NAME":"STARLINK-36246","OBJECT_ID":"2026-037H","EPOCH":"2026-03-05T14:00:01.999872","MEAN_MOTION":15.92866094,"ECCENTRICITY":0.00012835,"INCLINATION":42.9996,"RA_OF_ASC_NODE":223.8433,"ARG_OF_PERICENTER":271.5998,"MEAN_ANOMALY":305.3529,"EPHEMERIS_TYPE":0,"CLASSIFICATION_TYPE":"U","NORAD_CAT_ID":67939,"ELEMENT_SET_NO":999,"REV_AT_EPOCH":244,"BSTAR":-0.004346129,"MEAN_MOTION_DOT":-0.01558491,"MEAN_MOTION_DDOT":0.00068651493},{"OBJECT_NAME":"STARLINK-36907","OBJECT_ID":"2026-037J","EPOCH":"2026-03-05T14:00:01.999872","MEAN_MOTION":15.93238481,"ECCENTRICITY":0.0001039,"INCLINATION":42.9996,"RA_OF_ASC_NODE":223.822,"ARG_OF_PERICENTER":271.8365,"MEAN_ANOMALY":313.1539,"EPHEMERIS_TYPE":0,"CLASSIFICATION_TYPE":"U","NORAD_CAT_ID":67940,"ELEMENT_SET_NO":999,"REV_AT_EPOCH":253,"BSTAR":-0.0042103355,"MEAN_MOTION_DOT":-0.01539894,"MEAN_MOTION_DDOT":0.00067398998},{"OBJECT_NAME":"STARLINK-36927","OBJECT_ID":"2026-037K","EPOCH":"2026-03-05T14:00:01.999872","MEAN_MOTION":15.9351196,"ECCENTRICITY":0.00012138,"INCLINATION":42.9995,"RA_OF_ASC_NODE":223.8093,"ARG_OF_PERICENTER":273.1199,"MEAN_ANOMALY":316.9501,"EPHEMERIS_TYPE":0,"CLASSIFICATION_TYPE":"U","NORAD_CAT_ID":67941,"ELEMENT_SET_NO":999,"REV_AT_EPOCH":253,"BSTAR":-0.0041948204,"MEAN_MOTION_DOT":-0.01556392,"MEAN_MOTION_DDOT":0.0006891793}]
