STARLINK-36810          
1 67898U 26035V   26064.58335648 -.01227617  46814-3 -27374-2 0  9993
2 67898  97.2729 356.6316 0001226  84.5353  48.6003 15.97899534  3098
STARLINK-36878          
1 67899U 26035W   26064.58335648 -.01215203  46006-3 -26902-2 0  9991
2 67899  97.2726 356.6351 0001281  98.8190  42.3165 15.98028452  3097
STARLINK-36361          
1 67900U 26035X   26064.58335648 -.01240551  47848-3 -27319-2 0  9996
2 67900  97.2726 356.6369 0001333 104.0117  41.4504 15.98127773  3099
STARLINK-36336          
1 67901U 26035Y   26064.58335648 -.01244224  48224-3 -27076-2 0  9997
2 67901  97.2735 356.6427 0001285  90.8671  67.7691 15.98343246  3147
STARLINK-36876          
1 67902U 26035Z   26064.58335648 -.01241967  47983-3 -27254-2 0  9998
2 67902  97.2734 356.6394 0001302  96.3684  52.9318 15.98191891  3098
STARLINK-36257          
1 67903U 26035AA  26064.58335648 -.01239799  47865-3 -27099-2 0  9995
2 67903  97.2731 356.6401 0001272  83.0835  70.2388 15.98263356  3144
STARLINK-36301          
1 67932U 26037A   26064.58335648 -.01551934  67506-3 -45439-2 0  9999
2 67932  42.9995 223.8906 0001232 269.4946 288.6695 15.91933253  2440
STARLINK-36852          
1 67933U 26037B   26064.58335648 -.01539943  66640-3 -44759-2 0  9998
2 67933  42.9998 223.8847 0001069 274.3388 286.0919 15.92072638  2534
STARLINK-36861          
1 67934U 26037C   26064.58335648 -.01551563  67656-3 -44785-2 0  9998
2 67934  42.9997 223.8777 0001208 272.1757 291.1611 15.92207281  2537
STARLINK-36860          
1 67935U 26037D   26064.58335648 -.01563383  68693-3 -44821-2 0  9995
2 67935  42.9995 223.8704 0001530 275.1447 291.1900 15.92338167  2532
STARLINK-36848          
1 67936U 26037E   26064.58335648 -.01553145  68032-3 -43954-2 0  9994
2 67936  42.9996 223.8554 0001078 265.6869 306.3714 15.92585490  2531
STARLINK-36370          
1 67937U 26037F   26064.58335648 -.01556564  68219-3 -44358-2 0  9999
2 67937  42.9998 223.8628 0001469 272.2116 297.1832 15.92452237  2539
STARLINK-36371          
1 67938U 26037G   26064.58335648 -.01556546  68401-3 -43727-2 0  9992
2 67938  42.9996 223.8489 0001164 269.5079 305.0057 15.92726450  2531
STARLINK-36246          
1 67939U 26037H   26064.58335648 -.01558491  68651-3 -43461-2 0  9996
2 67939  42.9996 223.8433 0001283 271.5998 305.3529 15.92866094  2442
STARLINK-36907          
1 67940U 26037J   26064.58335648 -.01539894  67399-3 -42103-2 0  9994
2 67940  42.9996 223.8220 0001039 271.8365 313.1539 15.93238481  2530
STARLINK-36927          
1 67941U 26037K   26064.58335648 -.01556392  68918-3 -41948-2 0  9991
2 67941  42.9995 223.8093 0001213 273.1199 316.9501 15.93511960  2538
